[{"OBJECT_NAME":"BUCCANEER MM","OBJECT_ID":"2025-052AM","EPOCH":"2026-03-09T22:25:46.269120","MEAN_MOTION":14.94080951,"ECCENTRICITY":0.00039773,"INCLINATION":97.6989,"RA_OF_ASC_NODE":321.9491,"ARG_OF_PERICENTER":161.9633,"MEAN_ANOMALY":198.1729,"EPHEMERIS_TYPE":0,"CLASSIFICATION_TYPE":"U","NORAD_CAT_ID":63245,"ELEMENT_SET_NO":999,"REV_AT_EPOCH":5377,"BSTAR":0.0003752761,"MEAN_MOTION_DOT":3.953e-5,"MEAN_MOTION_DDOT":0},{"OBJECT_NAME":"ELECTRON KICK STAGE R\/B","OBJECT_ID":"2022-091C","EPOCH":"2026-03-09T22:17:33.094464","MEAN_MOTION":14.92016508,"ECCENTRICITY":0.00071989,"INCLINATION":70.0056,"RA_OF_ASC_NODE":12.42,"ARG_OF_PERICENTER":264.2776,"MEAN_ANOMALY":95.7559,"EPHEMERIS_TYPE":0,"CLASSIFICATION_TYPE":"U","NORAD_CAT_ID":53354,"ELEMENT_SET_NO":999,"REV_AT_EPOCH":9957,"BSTAR":0.00058954336,"MEAN_MOTION_DOT":5.909e-5,"MEAN_MOTION_DDOT":0}]
